STARLINK B              
1 53466U 22099B   22233.25001157  .00032094  00000+0  26514-3 0  9997
2 53466  97.6568 351.2594 0001556  91.0188 320.8945 15.70257648  1568
STARLINK C              
1 53467U 22099C   22233.25001157  .00007838  00000+0  65722-4 0  9991
2 53467  97.6560 351.2589 0001498  91.5891 320.9129 15.70272627  1565
STARLINK D              
1 53468U 22099D   22233.16667824  .00001723  00000+0  15300-4 0  9995
2 53468  97.6555 351.1673 0001537  81.7696 220.5563 15.70275464  1548
STARLINK E              
1 53469U 22099E   22233.25001157  .00004229  00000+0  35972-4 0  9998
2 53469  97.6554 351.2592 0001574  73.7703 340.5173 15.70275451  1568
STARLINK F              
1 53470U 22099F   22233.25001157  .00004239  00000+0  36050-4 0  9999
2 53470  97.6554 351.2587 0001556  76.4209 337.2709 15.70275446  1567
STARLINK G              
1 53471U 22099G   22233.25001157  .00004226  00000+0  35946-4 0  9999
2 53471  97.6554 351.2597 0001564  75.2361 340.2433 15.70275450  1567
STARLINK H              
1 53472U 22099H   22233.25001157  .00004243  00000+0  36084-4 0  9993
2 53472  97.6554 351.2593 0001529  81.4128 333.4708 15.70275442  1565
STARLINK J              
1 53473U 22099J   22233.25001157  .00004227  00000+0  35955-4 0  9992
2 53473  97.6554 351.2607 0001544  78.4290 338.8380 15.70275446  1564
STARLINK K              
1 53474U 22099K   22233.25001157  .00005944  00000+0  50109-4 0  9998
2 53474  97.6554 351.2616 0001399  87.1287 332.5229 15.70273954  1561
STARLINK L              
1 53475U 22099L   22233.25001157  .00004218  00000+0  35883-4 0  9994
2 53475  97.6554 351.2609 0001555  76.4807 341.3822 15.70275450  1567
STARLINK M              
1 53476U 22099M   22233.25001157  .00004251  00000+0  36152-4 0  9992
2 53476  97.6554 351.2599 0001510  88.7862 327.2891 15.70275435  1566
STARLINK N              
1 53477U 22099N   22233.25001157  .00005183  00000+0  43836-4 0  9995
2 53477  97.6554 351.2615 0001479  84.3945 334.6609 15.70274499  1562
STARLINK P              
1 53478U 22099P   22233.25001157  .00004258  00000+0  36211-4 0  9997
2 53478  97.6554 351.2603 0001509  93.7862 322.8850 15.70275430  1569
STARLINK Q              
1 53479U 22099Q   22233.25001157  .00008529  00000+0  71411-4 0  9994
2 53479  97.6554 351.2621 0001376  76.8324 343.4158 15.70272405  1566
STARLINK R              
1 53480U 22099R   22233.25001157  .00004432  00000+0  37646-4 0  9997
2 53480  97.6554 351.2611 0001553  79.6650 338.7940 15.70275205  1564
STARLINK S              
1 53481U 22099S   22233.25001157  .00011022  00000+0  91951-4 0  9990
2 53481  97.6554 351.2627 0001597  76.8019 344.6389 15.70270820  1569
STARLINK T              
1 53482U 22099T   22233.25001157  .00011372  00000+0  94830-4 0  9998
2 53482  97.6554 351.2622 0001475  73.7416 347.1032 15.70270727  1566
STARLINK U              
1 53483U 22099U   22233.25001157 -.00002730  00000+0 -21449-4 0  9995
2 53483  97.6554 351.2634 0001517  88.5821 334.6432 15.70278594  1566
STARLINK V              
1 53484U 22099V   22233.25001157  .00008083  00000+0  67739-4 0  9993
2 53484  97.6554 351.2628 0001601  91.9746 330.0615 15.70272413  1565
STARLINK W              
1 53485U 22099W   22233.25001157 -.00023576  00000+0 -19390-3 0  9999
2 53485  97.6554 351.2641 0001391  79.4679 344.9431 15.70291502  1563
STARLINK X              
1 53486U 22099X   22233.25001157  .00008030  00000+0  67306-4 0  9997
2 53486  97.6554 351.2632 0001624  81.3856 341.2464 15.70272442  1560
STARLINK Y              
1 53487U 22099Y   22233.25001157 -.00049389  00000+0 -40836-3 0  9990
2 53487  97.6554 351.2647 0001656  72.8843 352.7108 15.70307583  1560
STARLINK Z              
1 53488U 22099Z   22233.25001157 -.00014510  00000+0 -11882-3 0  9998
2 53488  97.6554 351.2637 0001354  85.5392 338.2786 15.70285750  1567
STARLINK AA             
1 53489U 22099AA  22233.25001157 -.00101738  00000+0 -84646-3 0  9996
2 53489  97.6554 351.2652 0001425  92.4598 334.3112 15.70340536  1563
STARLINK AB             
1 53490U 22099AB  22233.25001157 -.00031646  00000+0 -26084-3 0  9990
2 53490  97.6554 351.2643 0001489  77.5336 347.4709 15.70296571  1565
STARLINK AC             
1 53491U 22099AC  22233.25001157 -.00140024  00000+0 -11695-2 0  9993
2 53491  97.6554 351.2658 0001280  78.8133 349.1366 15.70365811  1562
STARLINK AD             
1 53492U 22099AD  22233.25001157 -.00073871  00000+0 -61272-3 0  9996
2 53492  97.6554 351.2648 0001594  82.5637 343.6200 15.70322819  1568
STARLINK AE             
1 53493U 22099AE  22233.25001157 -.00192232  00000+0 -16134-2 0  9996
2 53493  97.6554 351.2663 0001520  87.8843 341.2375 15.70402203  1565
STARLINK AF             
1 53494U 22099AF  22233.25001157 -.00121259  00000+0 -10109-2 0  9994
2 53494  97.6554 351.2654 0001325  81.9496 345.4109 15.70353254  1560
STARLINK AG             
1 53495U 22099AG  22233.25001157 -.00246929  00000+0 -20828-2 0  9996
2 53495  97.6554 351.2669 0001504  91.5038 338.7876 15.70441297  1577
STARLINK AH             
1 53496U 22099AH  22233.25001157 -.00167025  00000+0 -13986-2 0  9993
2 53496  97.6554 351.2659 0001332  88.9876 339.5481 15.70384417  1566
STARLINK AJ             
1 53497U 22099AJ  22233.25001157 -.00292892  00000+0 -24806-2 0  9998
2 53497  97.6554 351.2675 0001269  80.7255 350.7367 15.70476058  1577
STARLINK AK             
1 53498U 22099AK  22233.25001157 -.00219311  00000+0 -18452-2 0  9994
2 53498  97.6554 351.2665 0001646  77.8325 351.8744 15.70421364  1561
STARLINK AL             
1 53499U 22099AL  22233.25001157 -.00314235  00000+0 -26661-2 0  9997
2 53499  97.6554 351.2678 0001383  74.2349 357.8115 15.70493762  1560
STARLINK AM             
1 53500U 22099AM  22233.25001157 -.00268262  00000+0 -22671-2 0  9995
2 53500  97.6554 351.2671 0001375  90.4241 340.4541 15.70456880  1570
STARLINK AN             
1 53501U 22099AN  22233.25001157 -.00376289  00000+0 -32091-2 0  9992
2 53501  97.6554 351.2686 0001658  80.3023 353.4976 15.70545104  1560
STARLINK AP             
1 53502U 22099AP  22233.25001157 -.00334925  00000+0 -28466-2 0  9995
2 53502  97.6554 351.2679 0001518  74.9164 357.7154 15.70510281  1566
STARLINK AQ             
1 53503U 22099AQ  22233.25001157 -.00392051  00000+0 -33476-2 0  9997
2 53503  97.6555 351.2689 0001464  97.8308 336.5513 15.70561557  1569
STARLINK AR             
1 53504U 22099AR  22233.25001157 -.00353794  00000+0 -30117-2 0  9998
2 53504  97.6554 351.2682 0001602  83.3118 349.9057 15.70525745  1565
STARLINK AS             
1 53505U 22099AS  22233.25001157 -.00458174  00000+0 -39330-2 0  9993
2 53505  97.6554 351.2697 0001460  73.0218   3.1046 15.70621513  1568
STARLINK AT             
1 53506U 22099AT  22233.25001157 -.00414879  00000+0 -35492-2 0  9993
2 53506  97.6552 351.2690 0001404  84.3297 350.6345 15.70581380  1569
STARLINK AU             
1 53507U 22099AU  22233.25001157 -.00478241  00000+0 -41116-2 0  9997
2 53507  97.6554 351.2700 0001608  73.3868   3.3215 15.70640344  1566
STARLINK AV             
1 53508U 22099AV  22233.25001157 -.00438923  00000+0 -37624-2 0  9990
2 53508  97.6554 351.2692 0001339  69.7992   5.7471 15.70601847  1560
STARLINK AW             
1 53509U 22099AW  22233.25001157 -.00517630  00000+0 -44635-2 0  9994
2 53509  97.6552 351.2705 0001560  77.4221   0.4453 15.70680516  1563
STARLINK AX             
1 53510U 22099AX  22233.25001157 -.00498909  00000+0 -42958-2 0  9999
2 53510  97.6554 351.2700 0001682  81.9377 355.3489 15.70661822  1569
FALCON 9 DEB            
1 53511U 22099AY  22233.14401364  .00137277  89261-5  52174-3 0  9992
2 53511  97.6774 351.2548 0009904 244.9941 115.0301 15.87556773  1310
FALCON 9 DEB            
1 53512U 22099AZ  22232.89000995  .00129728  82493-5  48509-3 0  9998
2 53512  97.6756 350.9712 0007563 236.4149 123.6401 15.87929450  1272
FALCON 9 DEB            
1 53513U 22099BA  22232.88464966  .00142035  95187-5  49906-3 0  9992
2 53513  97.6723 350.9740 0012084 225.2616 134.7672 15.89097406  1279
FALCON 9 DEB            
1 53514U 22099BB  22232.88315888  .00137796  91192-5  47793-3 0  9993
2 53514  97.6711 350.9739 0011012 210.4930 149.5703 15.89381362  1276
2022-100A               
1 53522U 22101A   22233.24944666 -.00000037  00000+0  00000+0 0  9995
2 53522  34.9984 198.2068 0007925 273.2866 234.3443 15.23113041   236
2022-100B               
1 53523U 22101B   22233.24722390 -.00000037  00000+0  00000+0 0  9994
2 53523  34.9987 198.2169 0009263 280.8449 215.7200 15.23326198   233
2022-100C               
1 53524U 22101C   22233.31443442 -.00000038  00000+0  00000+0 0  9992
2 53524  34.9978 197.7924 0008950 298.7215 210.3747 15.23916838   196
2022-100D               
1 53525U 22101D   22233.24697788 -.00000038  00000+0  00000+0 0  9999
2 53525  34.9995 198.2143 0009840 291.5965 205.3341 15.23644286   185
2022-100E               
1 53526U 22101E   22233.24888529 -.00000037  00000+0  00000+0 0  9994
2 53526  34.9979 198.2036 0009188 289.6845 217.2834 15.23559588   188
